CUTE-1 (CO-55)          
1 27844U 03031E   18267.93562344  .00000047  00000-0  40902-4 0  9992
2 27844  98.6878 275.1235 0010964  83.8495 276.3931 14.22134434790336
CUBESAT XI-IV (CO-57)   
1 27848U 03031J   18267.92279836  .00000034  00000-0  35424-4 0  9995
2 27848  98.6962 275.5413 0010863  93.5375 266.7045 14.21735964790208
CUBESAT XI 5            
1 28895U 05043F   18267.88729233  .00000122  00000-0  32154-4 0  9994
2 28895  97.9231  55.3850 0018119 112.9620 247.3496 14.63583308688224
CUTE-1.7+APD II (CO-65) 
1 32785U 08021C   18267.83040821  .00000225  00000-0  30020-4 0  9994
2 32785  97.5476 275.2532 0014599  70.4724 289.8068 14.88177842563929
AAUSAT-II               
1 32788U 08021F   18267.52060978  .00000256  00000-0  28751-4 0  9990
2 32788  97.5167 289.8648 0012329  23.0679 337.1093 14.94454950564910
DELFI-C3 (DO-64)        
1 32789U 08021G   18267.69655503  .00001745  00000-0  12275-3 0  9990
2 32789  97.5026 319.9468 0011271 323.5279  36.5179 15.06317330566662
SEEDS II (CO-66)        
1 32791U 08021J   18267.68870486  .00000242  00000-0  29996-4 0  9991
2 32791  97.5344 280.6909 0014644  51.8117 308.4419 14.90631957564258
SWISSCUBE               
1 35932U 09051B   18267.86416452  .00000131  00000-0  40673-4 0  9996
2 35932  98.5587  61.4974 0006511 262.7567  97.2889 14.56197074477909
BEESAT                  
1 35933U 09051C   18267.88444393  .00000090  00000-0  31396-4 0  9990
2 35933  98.5625  63.1283 0004686 278.8594  81.2073 14.56296604477978
ITUPSAT 1               
1 35935U 09051E   18267.92692670  .00000057  00000-0  24291-4 0  9999
2 35935  98.5737  63.4227 0006993 273.2549  86.7847 14.55469348477804
M-CUBED & EXP-1 PRIME   
1 37855U 11061F   18267.89156131  .00002378  00000-0  12747-3 0  9999
2 37855 101.7157  21.4272 0175931 147.1089 214.1218 15.04717077376178
STRAND-1                
1 39090U 13009E   18267.74652577  .00000040  00000-0  29392-4 0  9994
2 39090  98.5123 112.7930 0009376   9.2200 350.9156 14.35050842292107
AIST-2 (RS-43)          
1 39133U 13015D   18267.95053554  .00000126  00000-0  21248-4 0  9999
2 39133  64.8721 256.3792 0011859 212.9175 147.1207 15.04607271297827
SOMP                    
1 39134U 13015E   18267.92390833  .00001447  00000-0  77314-4 0  9993
2 39134  64.8633 164.2176 0003486 290.3680  69.7072 15.19425861299674
BEESAT-3                
1 39135U 13015F   18267.91327757  .00000828  00000-0  51701-4 0  9992
2 39135  64.8688 178.9187 0013862 232.4460 127.5407 15.16885452299387
BEESAT-2                
1 39136U 13015G   18267.91843917  .00000797  00000-0  50867-4 0  9991
2 39136  64.8697 181.9579 0014284 233.1867 126.7949 15.16344697299322
NEE-01 PEGASUS          
1 39151U 13018B   18267.69139519  .00000144  00000-0  26133-4 0  9997
2 39151  97.9760   1.0613 0016725 351.3286   8.7634 14.79942056292232
ESTCUBE 1               
1 39161U 13021C   18267.67408232  .00000099  00000-0  23548-4 0  9997
2 39161  98.0052 352.0098 0010833  99.0509 261.1929 14.72104762289081
POPACS 1                
1 39268U 13055D   18267.93163213  .00004492  00000-0  12760-3 0  9992
2 39268  81.0020 241.5971 0632946 292.2073  61.3143 14.35163299257280
POPACS 2                
1 39269U 13055E   18267.31387685  .00005882  00000-0  17144-3 0  9991
2 39269  81.0117 266.2572 0689422 356.3206   3.3032 14.22690553256017
POPACS 3                
1 39270U 13055F   18267.47119377  .00002065  00000-0  63545-4 0  9998
2 39270  81.0141 279.5228 0718363  35.2735 329.3848 14.15009522256397
ZACUBE-1 (TSHEPISOSAT)  
1 39417U 13066B   18267.63550432  .00000201  00000-0  31751-4 0  9996
2 39417  97.5817 290.9345 0058874 187.9211 172.1078 14.80982279261517
WNISAT-1                
1 39423U 13066H   18267.85616014  .00000090  00000-0  27076-4 0  9997
2 39423  97.7373 224.3001 0176506  66.1503 295.8076 14.52979075256703
GOMX 1                  
1 39430U 13066Q   18267.94519571  .00000283  00000-0  60134-4 0  9991
2 39430  97.7085 237.6882 0152028  16.2272 344.3720 14.59128695257514
CUBEBUG-2 (LO-74)       
1 39440U 13066AA  18267.95076538  .00000185  00000-0  32917-4 0  9993
2 39440  97.6009 277.2574 0079220 230.8524 128.5629 14.75723271259436
NEE-02 KRYSAOR          
1 39441U 13066AB  18267.96185954  .00000118  00000-0  24034-4 0  9995
2 39441  97.6019 275.3379 0080604 236.4915 122.8576 14.74813972259327
FUNCUBE-1 (AO-73)       
1 39444U 13066AE  18267.64613944  .00000258  00000-0  38208-4 0  9991
2 39444  97.5822 292.5943 0058153 182.8434 177.2458 14.81775833260385
UWE-3                   
1 39446U 13066AG  18267.93803465  .00000191  00000-0  32095-4 0  9998
2 39446  97.5897 283.8033 0069413 209.3497 150.3809 14.78257544259264
BRITE-TORONTO           
1 40020U 14033L   18267.56306570  .00000069  00000-0  20399-4 0  9995
2 40020  97.7734 120.7754 0086192 288.6610  70.5252 14.66520386228147
DUCHIFAT-1              
1 40021U 14033M   18267.82768980  .00000307  00000-0  37441-4 0  9993
2 40021  97.9128 186.7154 0012089 204.6477 155.4164 14.90392791231790
NANOSATC-BR1            
1 40024U 14033Q   18267.71692183  .00000388  00000-0  46505-4 0  9995
2 40024  97.9055 184.6448 0011356 207.5624 152.4993 14.89643949231178
QB50P1                  
1 40025U 14033R   18267.82244330  .00000254  00000-0  33117-4 0  9992
2 40025  97.9005 182.9957 0011537 212.2022 147.8491 14.88777468231619
QB50P2                  
1 40032U 14033Y   18267.80867545  .00000237  00000-0  31675-4 0  9995
2 40032  97.8952 181.5481 0011038 207.4501 152.6134 14.88319276231547
PERSEUS-M2              
1 40037U 14033AD  18267.71447271  .00000072  00000-0  14420-4 0  9996
2 40037  97.8926 178.6709 0013402 219.3820 140.6422 14.86385054230817
PERSEUS-M1              
1 40039U 14033AF  18267.83212858  .00000071  00000-0  14380-4 0  9996
2 40039  97.8921 178.0856 0013316 215.5576 144.4753 14.86006583231278
POLYITAN-1              
1 40042U 14033AJ  18267.83284286  .00000300  00000-0  38399-4 0  9995
2 40042  97.9081 183.1802 0013944 201.7295 158.3331 14.88464822231531
TIGRISAT                
1 40043U 14033AK  18267.88126471  .00000130  00000-0  26828-4 0  9997
2 40043  97.7928 141.4800 0058770 236.9294 122.6264 14.74175963228995
AEROCUBE 6A             
1 40045U 14033AM  18267.88206901  .00000275  00000-0  47190-4 0  9991
2 40045  97.8112 144.1485 0056626 230.9493 128.6670 14.75212099228984
AEROCUBE 6B             
1 40046U 14033AN  18267.88398595  .00000265  00000-0  45734-4 0  9994
2 40046  97.8070 143.9557 0055983 230.0640 129.5644 14.75200051228981
UKUBE-1                 
1 40074U 14037F   18267.81837545  .00000220  00000-0  33691-4 0  9995
2 40074  98.4010  50.1953 0005153   6.1258 354.0028 14.83865115228071
BRITE-PL 2              
1 40119U 14049B   18267.84399431  .00000101  00000-0  18492-4 0  9998
2 40119  97.9164 355.7094 0017786  17.2640 342.9176 14.84322982222084
FIREBIRD 4              
1 40378U 15003C   18267.74644073  .00002207  00000-0  92978-4 0  9990
2 40378  99.0807 189.2794 0129162 259.2887  99.3777 15.17644443201429
GRIFEX                  
1 40379U 15003D   18267.71040986  .00001494  00000-0  69024-4 0  9994
2 40379  99.0818 184.8702 0136443 273.6885  84.8748 15.14641111201164
EXOCUBE                 
1 40380U 15003E   18267.81750971  .00001167  00000-0  57310-4 0  9991
2 40380  99.0856 182.5955 0141145 281.5278  77.0129 15.12779791201006
TIANWANG 1C (TW-1C)     
1 40926U 15051B   18267.90377520  .00008825  00000-0  15577-3 0  9991
2 40926  97.1738 309.8257 0007543 272.0868 213.3068 15.50580621168757
TIANWANG 1A (TW-1A)     
1 40928U 15051D   18267.86768519  .00002513  00000-0  66630-4 0  9995
2 40928  97.1785 299.8712 0010540 329.5376  28.9306 15.39206357168100
EXACTVIEW 9             
1 40936U 15052G   18267.11851700  .00000816  00000-0  25251-4 0  9996
2 40936   6.0045 168.6983 0010499 313.2246  46.7005 14.76416612161619
ATHENOXAT 1             
1 41168U 15077C   18267.74231481  .00001763  00000-0  59284-4 0  9993
2 41168  14.9936  11.5450 0012169 344.8955 258.8652 15.12997438153472
GALASSIA                
1 41170U 15077E   18267.61990538  .00001876  00000-0  64586-4 0  9993
2 41170  14.9897   6.5863 0013217   3.4886 356.5526 15.13361623153512
VELOX 2                 
1 41171U 15077F   18267.47831460  .00001633  00000-0  56529-4 0  9995
2 41171  14.9921  32.2682 0009056 295.6698  64.2687 15.10799587153273
HORYU-IV                
1 41340U 16012D   18267.73600710  .00000509  00000-0  32135-4 0  9992
2 41340  31.0061  33.4551 0014171 359.9812   0.0822 15.01061661142867
E-ST@R-II               
1 41459U 16025D   18267.73921491  .00002680  00000-0  14212-3 0  9996
2 41459  98.1280 335.6776 0170538 174.4492 185.8697 15.04663593132399
AAUSAT 4                
1 41460U 16025E   18267.88505142  .00002169  00000-0  11467-3 0  9996
2 41460  98.1204 336.4981 0160963 169.0091 191.4755 15.06200006132497
DIWATA-1                
1 41463U 98067HT  18267.78426896  .00016465  00000-0  12504-3 0  9999
2 41463  51.6373 183.1265 0002327 119.8223 335.7763 15.72481064137666
BEESAT-4                
1 41619U 16040W   18267.91898575  .00001536  00000-0  69465-4 0  9997
2 41619  97.4056 329.6481 0010180 235.7361 124.2911 15.22388078113261
CANX-7                  
1 41788U 16059F   18267.83024297  .00004191  00000-0  69201-3 0  9994
2 41788  98.2183 335.0099 0033114 137.3030 223.0797 14.70596267106744
ALSAT 1N                
1 41789U 16059G   18267.86944691  .00000036  00000-0  15928-4 0  9999
2 41789  98.1104 329.1948 0029330 131.7974 228.5722 14.64180742106607
RAVAN                   
1 41849U 16067B   18267.68532388  .00000581  00000-0  54509-4 0  9994
2 41849  97.9260 357.9150 0008292 179.9285 180.1939 14.97920695102021
CELTEE 1                
1 41850U 16067C   18267.69647003 -.00000335  00000-0 -23896-4 0  9992
2 41850  97.9229 357.1991 0008528 184.2398 175.8752 14.96868601101984
